0 CZ-4B R/B
1 37782U 11043B   13282.86118104  .00000175  00000-0  65242-4 0  6275
2 37782 099.3922 014.3361 0194707 264.0620 202.9248 14.36518242112815
0 CZ-4B R/B
1 37782U 11043B   13284.17465870  .00000243  00000-0  83821-4 0  6286
2 37782 099.3924 015.7686 0194719 260.2344 155.5475 14.36518821113006
0 CZ-4B R/B
1 37782U 11043B   13285.79700057  .00000213  00000-0  75376-4 0  6298
2 37782 099.3927 017.5380 0194767 255.5062 265.4597 14.36519339113244
0 CZ-4B R/B
1 37782U 11043B   13286.83961385  .00000279  00000-0  93468-4 0  6303
2 37782 099.3927 018.6751 0194779 252.4683 257.3188 14.36519661113385
0 CZ-4B R/B
1 37782U 11043B   13288.00942123  .00000437  00000-0  13686-3 0  6313
2 37782 099.3926 019.9511 0194837 249.0706 186.9504 14.36521240113559
0 CZ-4B R/B
1 37782U 11043B   13289.12110984  .00000345  00000-0  11154-3 0  6326
2 37782 099.3924 021.1637 0194916 245.8459 176.0231 14.36522330113714
0 CZ-4B R/B
1 37782U 11043B   13290.37213316  .00000388  00000-0  12336-3 0  6339
2 37782 099.3923 022.5282 0194962 242.2073 165.6767 14.36523397113899
0 CZ-4B R/B
1 37782U 11043B   13291.85387735  .00000413  00000-0  13006-3 0  6345
2 37782 099.3920 024.1444 0195013 237.8989 268.5063 14.36524372114109
0 CZ-4B R/B
1 37782U 11043B   13293.16035019  .00000472  00000-0  14628-3 0  6353
2 37782 099.3918 025.5693 0195026 234.0906 184.9362 14.36525535114294
0 CZ-4B R/B
1 37782U 11043B   13294.84972817  .00000490  00000-0  15109-3 0  6361
2 37782 099.3919 027.4118 0195079 229.1758 281.5596 14.36527420114531
0 CZ-4B R/B
1 37782U 11043B   13295.88644253  .00000443  00000-0  13810-3 0  6372
2 37782 099.3919 028.5424 0195140 226.1672 242.9278 14.36528167114687
